NORAD_CAT_ID,OBJECT_NAME,OBJECT_TYPE,EPOCH,MEAN_MOTION,ECCENTRICITY,INCLINATION,RA_OF_ASC_NODE,ARG_OF_PERICENTER,MEAN_ANOMALY,BSTAR,MEAN_MOTION_DOT,MEAN_MOTION_DDOT,TLE_LINE0,TLE_LINE1,TLE_LINE2,SEMIMAJOR_AXIS,PERIOD,APOGEE,PERIGEE,DECAYED
51956.0,STARLINK-3700,PAYLOAD,2023-09-14 02:19:35,15.08042123,0.0001347,53.0541,142.1932,95.0756,265.0388,0.00012893,1.722e-05,0.0,0 STARLINK-3700,1 51956U 22025A   23257.09694167  .00001722  00000-0  12893-3 0  9996,2 51956  53.0541 142.1932 0001347  95.0756 265.0388 15.08042123 85253,6920.32,95.488,543.117,541.253,0.0
51956.0,STARLINK-3700,PAYLOAD,2023-09-14 19:49:25,15.08024045,0.0001472,53.0544,138.9128,96.179,263.9367,-8.3768e-05,-1.59e-05,0.0,0 STARLINK-3700,1 51956U 22025A   23257.82598629 -.00001590  00000-0 -83768-4 0  9998,2 51956  53.0544 138.9128 0001472  96.1790 263.9367 15.08024045 85364,6920.376,95.489,543.259,541.222,0.0
51956.0,STARLINK-3700,PAYLOAD,2023-09-14 21:24:51,15.08023985,0.0001452,53.0545,138.6146,94.7594,265.3561,-8.3302e-05,-1.582e-05,0.0,0 STARLINK-3700,1 51956U 22025A   23257.89226155 -.00001582  00000-0 -83302-4 0  9992,2 51956  53.0545 138.6146 0001452  94.7594 265.3561 15.08023985 84280,6920.376,95.489,543.246,541.236,0.0
51956.0,STARLINK-3700,PAYLOAD,2023-09-15 00:35:43,15.08025208,0.0001441,53.0547,138.0189,88.2272,271.8883,-7.0798e-05,-1.388e-05,0.0,0 STARLINK-3700,1 51956U 22025A   23258.02481119 -.00001388  00000-0 -70798-4 0  9990,2 51956  53.0547 138.0189 0001441  88.2272 271.8883 15.08025208 84304,6920.372,95.489,543.234,541.24,0.0
51956.0,STARLINK-3700,PAYLOAD,2023-09-15 22:51:48,15.08038619,0.0001319,53.0545,133.8437,91.5855,268.5286,2.3847e-05,8.5e-07,0.0,0 STARLINK-3700,1 51956U 22025A   23258.95264967  .00000085  00000-0  23847-4 0  9996,2 51956  53.0545 133.8437 0001319  91.5855 268.5286 15.08038619 85535,6920.331,95.488,543.109,541.283,0.0
51956.0,STARLINK-3700,PAYLOAD,2023-09-16 02:02:40,15.08042025,0.0001326,53.0544,133.2458,90.0096,270.1046,5.9486e-05,6.41e-06,0.0,0 STARLINK-3700,1 51956U 22025A   23259.08519623  .00000641  00000-0  59486-4 0  9999,2 51956  53.0544 133.2458 0001326  90.0096 270.1046 15.08042025 84460,6920.321,95.488,543.103,541.268,0.0
51956.0,STARLINK-3700,PAYLOAD,2023-09-16 16:21:37,15.08021439,0.0001656,53.0543,130.5599,84.8562,275.2616,6.1436e-05,6.7e-06,0.0,0 STARLINK-3700,1 51956U 22025A   23259.68168724  .00000670  00000-0  61436-4 0  9997,2 51956  53.0543 130.5599 0001656  84.8562 275.2616 15.08021439 85646,6920.384,95.489,543.395,541.103,0.0
51956.0,STARLINK-3700,PAYLOAD,2023-09-17 00:18:48,15.0802246,0.0001389,53.0544,129.0707,83.9585,276.1563,8.4427e-05,1.028e-05,0.0,0 STARLINK-3700,1 51956U 22025A   23260.01306314  .00001028  00000-0  84427-4 0  9998,2 51956  53.0544 129.0707 0001389  83.9585 276.1563 15.08022460 84600,6920.38,95.489,543.207,541.284,0.0
51956.0,STARLINK-3700,PAYLOAD,2023-09-18 01:45:45,15.0804607,0.0001376,53.0541,124.2973,85.724,274.3907,0.00012121,1.602e-05,0.0,0 STARLINK-3700,1 51956U 22025A   23261.07344859  .00001602  00000-0  12121-3 0  9990,2 51956  53.0541 124.2973 0001376  85.7240 274.3907 15.08046070 85856,6920.308,95.488,543.125,541.221,0.0
51956.0,STARLINK-3700,PAYLOAD,2023-09-18 20:51:00,15.08028793,0.0001354,53.0532,120.7167,83.9078,276.2066,9.708e-05,1.226e-05,0.0,0 STARLINK-3700,1 51956U 22025A   23261.86876137  .00001226  00000-0  97080-4 0  9996,2 51956  53.0532 120.7167 0001354  83.9078 276.2066 15.08028793 84888,6920.361,95.489,543.163,541.289,0.0
51956.0,STARLINK-3700,PAYLOAD,2023-09-19 00:01:52,15.08032864,0.000137,53.0532,120.1181,89.1326,270.9821,0.00015244,2.088e-05,0.0,0 STARLINK-3700,1 51956U 22025A   23262.00130709  .00002088  00000-0  15244-3 0  9999,2 51956  53.0532 120.1181 0001370  89.1326 270.9821 15.08032864 85997,6920.349,95.489,543.162,541.265,0.0
51956.0,STARLINK-3700,PAYLOAD,2023-09-19 19:07:06,15.08046753,0.0001421,53.0531,116.5415,81.9034,278.2116,0.00020378,2.889e-05,0.0,0 STARLINK-3700,1 51956U 22025A   23262.79659843  .00002889  00000-0  20378-3 0  9993,2 51956  53.0531 116.5415 0001421  81.9034 278.2116 15.08046753 86113,6920.306,95.488,543.154,541.188,0.0
51956.0,STARLINK-3700,PAYLOAD,2023-09-19 23:53:24,15.08052971,0.0001439,53.0527,115.6453,86.9561,273.1594,0.00042468,6.336e-05,0.0,0 STARLINK-3700,1 51956U 22025A   23262.99542066  .00006336  00000-0  42468-3 0  9998,2 51956  53.0527 115.6453 0001439  86.9561 273.1594 15.08052971 85054,6920.287,95.487,543.148,541.156,0.0
51956.0,STARLINK-3700,PAYLOAD,2023-09-20 17:23:13,15.08020863,0.0001259,53.0524,112.3668,88.7534,271.36,-0.00018874,-3.222e-05,0.0,0 STARLINK-3700,1 51956U 22025A   23263.72445873 -.00003222  00000-0 -18874-3 0  9995,2 51956  53.0524 112.3668 0001259  88.7534 271.3600 15.08020863 86259,6920.385,95.489,543.122,541.379,0.0
51956.0,STARLINK-3700,PAYLOAD,2023-09-20 20:34:05,15.08019937,0.0001271,53.0524,111.7702,93.3052,266.8083,-0.00017582,-3.021e-05,0.0,0 STARLINK-3700,1 51956U 22025A   23263.85700968 -.00003021  00000-0 -17582-3 0  9990,2 51956  53.0524 111.7702 0001271  93.3052 266.8083 15.08019937 85187,6920.388,95.489,543.133,541.374,0.0
51956.0,STARLINK-3700,PAYLOAD,2023-09-20 23:44:58,15.08018799,0.000128,53.0528,111.1737,83.8327,276.2809,-0.00014955,-2.613e-05,0.0,0 STARLINK-3700,1 51956U 22025A   23263.98956149 -.00002613  00000-0 -14955-3 0  9995,2 51956  53.0528 111.1737 0001280  83.8327 276.2809 15.08018799 85201,6920.392,95.49,543.142,541.371,0.0
51956.0,STARLINK-3700,PAYLOAD,2023-09-21 18:50:12,15.08026763,0.0001248,53.0533,107.593,110.0845,250.0279,0.00025128,3.628e-05,0.0,0 STARLINK-3700,1 51956U 22025A   23264.78486321  .00003628  00000-0  25128-3 0  9993,2 51956  53.0533 107.5930 0001248 110.0845 250.0279 15.08026763 86418,6920.367,95.489,543.096,541.369,0.0
51956.0,STARLINK-3700,PAYLOAD,2023-09-21 23:36:30,15.08034725,0.0001266,53.0532,106.6982,102.6272,257.486,0.00051686,7.771e-05,0.0,0 STARLINK-3700,1 51956U 22025A   23264.98368803  .00007771  00000-0  51686-3 0  9990,2 51956  53.0532 106.6982 0001266 102.6272 257.4860 15.08034725 85351,6920.343,95.489,543.084,541.332,0.0
51956.0,STARLINK-3700,PAYLOAD,2023-09-22 18:41:43,15.08053066,0.0001228,53.0535,103.1189,100.1685,259.9443,0.00071073,0.00010803,0.0,0 STARLINK-3700,1 51956U 22025A   23265.77898097  .00010803  00000-0  71073-3 0  9993,2 51956  53.0535 103.1189 0001228 100.1685 259.9443 15.08053066 86561,6920.287,95.487,543.002,541.302,0.0
51956.0,STARLINK-3700,PAYLOAD,2023-09-22 20:17:09,15.0806694,0.0001151,53.0534,102.8214,96.2107,263.9014,0.0011374,0.00017484,0.0,0 STARLINK-3700,1 51956U 22025A   23265.84525302  .00017484  00000-0  11374-2 0  9996,2 51956  53.0534 102.8214 0001151  96.2107 263.9014 15.08066940 85488,6920.244,95.486,542.906,541.313,0.0
51956.0,STARLINK-3700,PAYLOAD,2023-09-23 12:11:31,15.08040312,0.0002244,53.0533,99.8377,82.2995,277.825,-2.5458e-05,-6.83e-06,0.0,0 STARLINK-3700,1 51956U 22025A   23266.50800242 -.00000683  00000-0 -25458-4 0  9994,2 51956  53.0533  99.8377 0002244  82.2995 277.8250 15.08040312 86679,6920.326,95.488,543.744,540.638,0.0
51956.0,STARLINK-3700,PAYLOAD,2023-09-23 18:33:16,15.0802796,0.0001328,53.0537,98.6455,93.2422,266.8719,-0.00024238,-4.057e-05,0.0,0 STARLINK-3700,1 51956U 22025A   23266.77310190 -.00004057  00000-0 -24238-3 0  9994,2 51956  53.0537  98.6455 0001328  93.2422 266.8719 15.08027960 86713,6920.364,95.489,543.148,541.31,0.0
51956.0,STARLINK-3700,PAYLOAD,2023-09-23 23:19:34,15.08029923,0.0001322,53.0534,97.7509,89.1687,270.9454,0.00020417,2.894e-05,0.0,0 STARLINK-3700,1 51956U 22025A   23266.97192822  .00002894  00000-0  20417-3 0  9996,2 51956  53.0534  97.7509 0001322  89.1687 270.9454 15.08029923 85656,6920.358,95.489,543.137,541.308,0.0
51956.0,STARLINK-3700,PAYLOAD,2023-09-24 20:00:15,15.0803328,0.0001333,53.0533,93.8731,86.5858,273.5284,0.00061958,9.374e-05,0.0,0 STARLINK-3700,1 51956U 22025A   23267.83350748  .00009374  00000-0  61958-3 0  9990,2 51956  53.0533  93.8731 0001333  86.5858 273.5284 15.08033280 86878,6920.347,95.489,543.135,541.29,0.0
51956.0,STARLINK-3700,PAYLOAD,2023-09-25 11:54:36,15.08041539,0.0001322,53.0526,90.8896,80.4492,279.6647,0.00057052,8.61e-05,0.0,0 STARLINK-3700,1 51956U 22025A   23268.49625471  .00008610  00000-0  57052-3 0  9993,2 51956  53.0526  90.8896 0001322  80.4492 279.6647 15.08041539 85880,6920.322,95.488,543.102,541.272,0.0
51956.0,STARLINK-3700,PAYLOAD,2023-09-25 19:51:47,15.0803633,0.0001396,53.053,89.3994,81.1667,278.9481,0.00032789,4.823e-05,0.0,0 STARLINK-3700,1 51956U 22025A   23268.82763155  .00004823  00000-0  32789-3 0  9994,2 51956  53.0530  89.3994 0001396  81.1667 278.9481 15.08036330 87029,6920.338,95.488,543.169,541.237,0.0
51956.0,STARLINK-3700,PAYLOAD,2023-09-25 21:27:13,15.08039464,0.0001372,53.0527,89.1,81.2322,278.8823,0.00037845,5.612e-05,0.0,0 STARLINK-3700,1 51956U 22025A   23268.89390512  .00005612  00000-0  37845-3 0  9999,2 51956  53.0527  89.1000 0001372  81.2322 278.8823 15.08039464 85943,6920.328,95.488,543.143,541.244,0.0
51956.0,STARLINK-3700,PAYLOAD,2023-09-25 23:02:39,15.08042857,0.0001364,53.0529,88.8018,80.9282,279.1862,0.00044194,6.603e-05,0.0,0 STARLINK-3700,1 51956U 22025A   23268.96017879  .00006603  00000-0  44194-3 0  9995,2 51956  53.0529  88.8018 0001364  80.9282 279.1862 15.08042857 85950,6920.318,95.488,543.127,541.239,0.0
51956.0,STARLINK-3700,PAYLOAD,2023-09-26 18:07:54,15.08021535,0.0002408,53.0532,85.2249,41.9081,318.2092,1.5223e-05,-4.9e-07,0.0,0 STARLINK-3700,1 51956U 22025A   23269.75549398 -.00000049  00000-0  15223-4 0  9990,2 51956  53.0532  85.2249 0002408  41.9081 318.2092 15.08021535 87160,6920.383,95.489,543.915,540.582,0.0
51956.0,STARLINK-3700,PAYLOAD,2023-09-26 21:18:46,15.08030003,0.0001523,53.0528,84.627,102.7436,257.3724,0.00012041,1.589e-05,0.0,0 STARLINK-3700,1 51956U 22025A   23269.88803624  .00001589  00000-0  12041-3 0  9992,2 51956  53.0528  84.6270 0001523 102.7436 257.3724 15.08030003 86095,6920.357,95.489,543.276,541.168,0.0
